{"type": "FeatureCollection", "features": [ {"type": "Feature", "properties": {"norad_id": 30941, "name": "FENGYUN 1C DEB", "group": "fengyun-1c-debris", "lat": -34.175061225206974, "lon": 30.073128698735378, "alt_km": 784.2876423877287, "timestamp": "2025-12-25T07:41:10.002792+00:00", "meta": {"OBJECT_NAME": "FENGYUN 1C DEB", "OBJECT_ID": "1999-025BAF", "EPOCH": "2025-12-22T13:14:37.382784", "MEAN_MOTION": 14.31127061, "ECCENTRICITY": 0.00335429, "INCLINATION": 98.5449, "RA_OF_ASC_NODE": 213.2099, "ARG_OF_PERICENTER": 288.9005, "MEAN_ANOMALY": 70.8542, "EPHEMERIS_TYPE": 0, "CLASSIFICATION_TYPE": "U", "NORAD_CAT_ID": 30941, "ELEMENT_SET_NO": 999, "REV_AT_EPOCH": 96766, "BSTAR": 0.0019229309, "MEAN_MOTION_DOT": 5.062e-05, "MEAN_MOTION_DDOT": 0}, "tle": {"line1": "1 30941U 99025BAF 25356.55182156  .00005062  00000+0  19229-2 0  9993", "line2": "2 30941  98.5449 213.2099 0033542 288.9005  70.8542 14.31127061967669"}}, "geometry": {"type": "Point", "coordinates": [30.073128698735378, -34.175061225206974]}}, {"type": "Feature", "properties": {"norad_id": 30942, "name": "FENGYUN 1C DEB", "group": "fengyun-1c-debris", "lat": -28.126012156734102, "lon": 172.53547099319556, "alt_km": 921.826864017924, "timestamp": "2025-12-25T07:41:10.002801+00:00", "meta": {"OBJECT_NAME": "FENGYUN 1C DEB", "OBJECT_ID": "1999-025BAG", "EPOCH": "2025-12-23T11:18:22.367808", "MEAN_MOTION": 14.14848135, "ECCENTRICITY": 0.01380214, "INCLINATION": 98.6801, "RA_OF_ASC_NODE": 355.4204, "ARG_OF_PERICENTER": 75.8391, "MEAN_ANOMALY": 78.1252, "EPHEMERIS_TYPE": 0, "CLASSIFICATION_TYPE": "U", "NORAD_CAT_ID": 30942, "ELEMENT_SET_NO": 999, "REV_AT_EPOCH": 96796, "BSTAR": 0.000205253, "MEAN_MOTION_DOT": 3.93e-06, "MEAN_MOTION_DDOT": 0}, "tle": {"line1": "1 30942U 99025BAG 25357.47109222  .00000393  00000+0  20525-3 0  9993", "line2": "2 30942  98.6801 355.4204 0138021  75.8391  78.1252 14.14848135967964"}}, "geometry": {"type": "Point", "coordinates": [172.53547099319556, -28.126012156734102]}}, {"type": "Feature", "properties": {"norad_id": 30943, "name": "FENGYUN 1C DEB", "group": "fengyun-1c-debris", "lat": 75.10031033403193, "lon": -22.743566963584154, "alt_km": 845.9363042448731, "timestamp": "2025-12-25T07:41:10.002812+00:00", "meta": {"OBJECT_NAME": "FENGYUN 1C DEB", "OBJECT_ID": "1999-025BAH", "EPOCH": "2025-12-20T07:38:18.723264", "MEAN_MOTION": 14.04497018, "ECCENTRICITY": 0.00507, "INCLINATION": 98.7975, "RA_OF_ASC_NODE": 8.0033, "ARG_OF_PERICENTER": 44.8439, "MEAN_ANOMALY": 315.6809, "EPHEMERIS_TYPE": 0, "CLASSIFICATION_TYPE": "U", "NORAD_CAT_ID": 30943, "ELEMENT_SET_NO": 999, "REV_AT_EPOCH": 95848, "BSTAR": 0.00028856793, "MEAN_MOTION_DOT": 4.23e-06, "MEAN_MOTION_DDOT": 0}, "tle": {"line1": "1 30943U 99025BAH 25354.31827226  .00000423  00000+0  28857-3 0  9995", "line2": "2 30943  98.7975   8.0033 0050700  44.8439 315.6809 14.04497018958488"}}, "geometry": {"type": "Point", "coordinates": [-22.743566963584154, 75.10031033403193]}}, {"type": "Feature", "properties": {"norad_id": 30944, "name": "FENGYUN 1C DEB", "group": "fengyun-1c-debris", "lat": -80.84242840877792, "lon": 160.59944674204883, "alt_km": 820.8019182926337, "timestamp": "2025-12-25T07:41:10.002822+00:00", "meta": {"OBJECT_NAME": "FENGYUN 1C DEB", "OBJECT_ID": "1999-025BAJ", "EPOCH": "2025-12-21T22:15:45.159264", "MEAN_MOTION": 14.52456444, "ECCENTRICITY": 0.01492776, "INCLINATION": 98.849, "RA_OF_ASC_NODE": 52.1254, "ARG_OF_PERICENTER": 73.0628, "MEAN_ANOMALY": 105.9233, "EPHEMERIS_TYPE": 0, "CLASSIFICATION_TYPE": "U", "NORAD_CAT_ID": 30944, "ELEMENT_SET_NO": 999, "REV_AT_EPOCH": 99209, "BSTAR": 0.00012945518, "MEAN_MOTION_DOT": 5.54e-06, "MEAN_MOTION_DDOT": 0}, "tle": {"line1": "1 30944U 99025BAJ 25355.92760601  .00000554  00000+0  12946-3 0  9994", "line2": "2 30944  98.8490  52.1254 0149277  73.0628 105.9233 14.52456444992096"}}, "geometry": {"type": "Point", "coordinates": [160.59944674204883, -80.84242840877792]}}, {"type": "Feature", "properties": {"norad_id": 30945, "name": "FENGYUN 1C DEB", "group": "fengyun-1c-debris", "lat": 71.86458287288386, "lon": -21.38547753730057, "alt_km": 778.5406518016744, "timestamp": "2025-12-25T07:41:10.002832+00:00", "meta": {"OBJECT_NAME": "FENGYUN 1C DEB", "OBJECT_ID": "1999-025BAK", "EPOCH": "2025-12-23T19:13:25.802112", "MEAN_MOTION": 14.29800555, "ECCENTRICITY": 0.0030348, "INCLINATION": 99.3905, "RA_OF_ASC_NODE": 7.3251, "ARG_OF_PERICENTER": 6.9544, "MEAN_ANOMALY": 171.4141, "EPHEMERIS_TYPE": 0, "CLASSIFICATION_TYPE": "U", "NORAD_CAT_ID": 30945, "ELEMENT_SET_NO": 999, "REV_AT_EPOCH": 96595, "BSTAR": 0.0016300295, "MEAN_MOTION_DOT": 4.161e-05, "MEAN_MOTION_DDOT": 0}, "tle": {"line1": "1 30945U 99025BAK 25357.80099308  .00004161  00000+0  16300-2 0  9998", "line2": "2 30945  99.3905   7.3251 0030348   6.9544 171.4141 14.29800555965954"}}, "geometry": {"type": "Point", "coordinates": [-21.38547753730057, 71.86458287288386]}}, {"type": "Feature", "properties": {"norad_id": 30946, "name": "FENGYUN 1C DEB", "group": "fengyun-1c-debris", "lat": 37.99618406007832, "lon": -57.47413072824398, "alt_km": 666.8416545959244, "timestamp": "2025-12-25T07:41:10.002842+00:00", "meta": {"OBJECT_NAME": "FENGYUN 1C DEB", "OBJECT_ID": "1999-025BAL", "EPOCH": "2025-12-23T07:12:30.483648", "MEAN_MOTION": 14.48204965, "ECCENTRICITY": 0.00896134, "INCLINATION": 99.0402, "RA_OF_ASC_NODE": 113.2219, "ARG_OF_PERICENTER": 161.5838, "MEAN_ANOMALY": 255.1727, "EPHEMERIS_TYPE": 0, "CLASSIFICATION_TYPE": "U", "NORAD_CAT_ID": 30946, "ELEMENT_SET_NO": 999, "REV_AT_EPOCH": 98504, "BSTAR": 0.00071944578, "MEAN_MOTION_DOT": 2.77e-05, "MEAN_MOTION_DDOT": 0}, "tle": {"line1": "1 30946U 99025BAL 25357.30035282  .00002770  00000+0  71945-3 0  9996", "line2": "2 30946  99.0402 113.2219 0089613 161.5838 255.1727 14.48204965985044"}}, "geometry": {"type": "Point", "coordinates": [-57.47413072824398, 37.99618406007832]}}, {"type": "Feature", "properties": {"norad_id": 30947, "name": "FENGYUN 1C DEB", "group": "fengyun-1c-debris", "lat": 62.85721699018384, "lon": 86.88195019466029, "alt_km": 763.4103795777373, "timestamp": "2025-12-25T07:41:10.002852+00:00", "meta": {"OBJECT_NAME": "FENGYUN 1C DEB", "OBJECT_ID": "1999-025BAM", "EPOCH": "2025-12-23T03:22:32.817504", "MEAN_MOTION": 14.38058582, "ECCENTRICITY": 0.00958287, "INCLINATION": 98.8087, "RA_OF_ASC_NODE": 247.042, "ARG_OF_PERICENTER": 216.6235, "MEAN_ANOMALY": 142.8375, "EPHEMERIS_TYPE": 0, "CLASSIFICATION_TYPE": "U", "NORAD_CAT_ID": 30947, "ELEMENT_SET_NO": 999, "REV_AT_EPOCH": 98642, "BSTAR": 0.00024298725, "MEAN_MOTION_DOT": 7.27e-06, "MEAN_MOTION_DDOT": 0}, "tle": {"line1": "1 30947U 99025BAM 25357.14065761  .00000727  00000+0  24299-3 0  9994", "line2": "2 30947  98.8087 247.0420 0095828 216.6235 142.8375 14.38058582986424"}}, "geometry": {"type": "Point", "coordinates": [86.88195019466029, 62.85721699018384]}}, {"type": "Feature", "properties": {"norad_id": 30949, "name": "FENGYUN 1C DEB", "group": "fengyun-1c-debris", "lat": 39.49202973733093, "lon": -13.910267955697305, "alt_km": 891.563985468284, "timestamp": "2025-12-25T07:41:10.002862+00:00", "meta": {"OBJECT_NAME": "FENGYUN 1C DEB", "OBJECT_ID": "1999-025BAP", "EPOCH": "2025-12-22T06:32:20.994144", "MEAN_MOTION": 14.14058038, "ECCENTRICITY": 0.01161042, "INCLINATION": 98.6981, "RA_OF_ASC_NODE": 350.3705, "ARG_OF_PERICENTER": 282.4266, "MEAN_ANOMALY": 90.2041, "EPHEMERIS_TYPE": 0, "CLASSIFICATION_TYPE": "U", "NORAD_CAT_ID": 30949, "ELEMENT_SET_NO": 999, "REV_AT_EPOCH": 96651, "BSTAR": 0.00022736804, "MEAN_MOTION_DOT": 4.17e-06, "MEAN_MOTION_DDOT": 0}, "tle": {"line1": "1 30949U 99025BAP 25356.27246521  .00000417  00000+0  22737-3 0  9995", "line2": "2 30949  98.6981 350.3705 0116104 282.4266  90.2041 14.14058038966511"}}, "geometry": {"type": "Point", "coordinates": [-13.910267955697305, 39.49202973733093]}}, {"type": "Feature", "properties": {"norad_id": 30954, "name": "FENGYUN 1C DEB", "group": "fengyun-1c-debris", "lat": 56.43053830797561, "lon": -67.49932002885193, "alt_km": 755.3671707300446, "timestamp": "2025-12-25T07:41:10.002872+00:00", "meta": {"OBJECT_NAME": "FENGYUN 1C DEB", "OBJECT_ID": "1999-025BAU", "EPOCH": "2025-12-24T18:14:53.560896", "MEAN_MOTION": 14.14985902, "ECCENTRICITY": 0.012888, "INCLINATION": 98.712, "RA_OF_ASC_NODE": 98.5949, "ARG_OF_PERICENTER": 153.2678, "MEAN_ANOMALY": 359.3659, "EPHEMERIS_TYPE": 0, "CLASSIFICATION_TYPE": "U", "NORAD_CAT_ID": 30954, "ELEMENT_SET_NO": 999, "REV_AT_EPOCH": 96557, "BSTAR": 0.0011360109, "MEAN_MOTION_DOT": 2.34e-05, "MEAN_MOTION_DDOT": 0}, "tle": {"line1": "1 30954U 99025BAU 25358.76034214  .00002340  00000+0  11360-2 0  9997", "line2": "2 30954  98.7120  98.5949 0128880 153.2678 359.3659 14.14985902965578"}}, "geometry": {"type": "Point", "coordinates": [-67.49932002885193, 56.43053830797561]}}, {"type": "Feature", "properties": {"norad_id": 30956, "name": "FENGYUN 1C DEB", "group": "fengyun-1c-debris", "lat": 80.79228663073977, "lon": -38.92138035757523, "alt_km": 864.8130714434647, "timestamp": "2025-12-25T07:41:10.002882+00:00", "meta": {"OBJECT_NAME": "FENGYUN 1C DEB", "OBJECT_ID": "1999-025BAW", "EPOCH": "2025-12-24T00:51:06.655680", "MEAN_MOTION": 14.14246368, "ECCENTRICITY": 0.00491307, "INCLINATION": 98.7593, "RA_OF_ASC_NODE": 31.8301, "ARG_OF_PERICENTER": 310.1273, "MEAN_ANOMALY": 79.2516, "EPHEMERIS_TYPE": 0, "CLASSIFICATION_TYPE": "U", "NORAD_CAT_ID": 30956, "ELEMENT_SET_NO": 999, "REV_AT_EPOCH": 96467, "BSTAR": 0.00087998664, "MEAN_MOTION_DOT": 1.655e-05, "MEAN_MOTION_DDOT": 0}, "tle": {"line1": "1 30956U 99025BAW 25358.03549370  .00001655  00000+0  87999-3 0  9993", "line2": "2 30956  98.7593  31.8301 0049130 310.1273  79.2516 14.14246368964677"}}, "geometry": {"type": "Point", "coordinates": [-38.92138035757523, 80.79228663073977]}}]}